NORAD_CAT_ID,OBJECT_NAME,OBJECT_TYPE,EPOCH,MEAN_MOTION,ECCENTRICITY,INCLINATION,RA_OF_ASC_NODE,ARG_OF_PERICENTER,MEAN_ANOMALY,BSTAR,MEAN_MOTION_DOT,MEAN_MOTION_DDOT,TLE_LINE0,TLE_LINE1,TLE_LINE2,SEMIMAJOR_AXIS,PERIOD,APOGEE,PERIGEE,DECAYED
53801.0,STARLINK-4715,PAYLOAD,2024-08-11 16:25:09,15.08841618,0.0001847,53.2181,325.1682,111.1187,249.0002,0.00015276,2.144e-05,0.0,0 STARLINK-4715,1 53801U 22111AE  24224.68413917  .00002144  00000-0  15276-3 0  9992,2 53801  53.2181 325.1682 0001847 111.1187 249.0002 15.08841618107014,6917.875,95.437,541.018,538.463,0.0
53801.0,STARLINK-4715,PAYLOAD,2024-08-12 00:22:04,15.08863067,0.0001147,53.2171,323.685,91.9958,268.1166,0.00031311,4.702e-05,0.0,0 STARLINK-4715,1 53801U 22111AE  24225.01532619  .00004702  00000-0  31311-3 0  9991,2 53801  53.2171 323.6850 0001147  91.9958 268.1166 15.08863067106257,6917.81,95.436,540.468,538.881,0.0
53801.0,STARLINK-4715,PAYLOAD,2024-08-12 13:05:09,15.08860157,0.0002848,53.2163,321.3039,98.9239,261.2076,0.00041362,6.304e-05,0.0,0 STARLINK-4715,1 53801U 22111AE  24225.54525105  .00006304  00000-0  41362-3 0  9998,2 53801  53.2163 321.3039 0002848  98.9239 261.2076 15.08860157106330,6917.819,95.436,541.654,537.714,0.0
53801.0,STARLINK-4715,PAYLOAD,2024-08-12 17:51:19,15.08862829,0.0002363,53.2147,320.412,94.691,265.4352,0.00054168,8.349e-05,0.0,0 STARLINK-4715,1 53801U 22111AE  24225.74397027  .00008349  00000-0  54168-3 0  9999,2 53801  53.2147 320.4120 0002363  94.6910 265.4352 15.08862829107178,6917.811,95.436,541.31,538.041,0.0
53801.0,STARLINK-4715,PAYLOAD,2024-08-13 12:55:58,15.08779329,0.0001046,53.2171,316.8444,91.9169,268.1943,-0.0011228,-0.00018083,0.0,0 STARLINK-4715,1 53801U 22111AE  24226.53887485 -.00018083  00000-0 -11228-2 0  9996,2 53801  53.2171 316.8444 0001046  91.9169 268.1943 15.08779329106487,6918.066,95.441,540.654,539.207,0.0
53801.0,STARLINK-4715,PAYLOAD,2024-08-13 17:42:08,15.08776877,0.0001453,53.217,315.9522,92.3312,267.7847,-0.00142,-0.00022777,0.0,0 STARLINK-4715,1 53801U 22111AE  24226.73759670 -.00022777  00000-0 -14200-2 0  9990,2 53801  53.2170 315.9522 0001453  92.3312 267.7847 15.08776877107327,6918.073,95.442,540.944,538.933,0.0
53801.0,STARLINK-4715,PAYLOAD,2024-08-14 06:25:13,15.08802034,1.69e-05,53.2203,313.5781,290.3465,69.7509,-0.00029966,-5.048e-05,0.0,0 STARLINK-4715,1 53801U 22111AE  24227.26752122 -.00005048  00000-0 -29966-3 0  9992,2 53801  53.2203 313.5781 0000169 290.3465  69.7509 15.08802034106595,6917.996,95.44,539.978,539.745,0.0
53801.0,STARLINK-4715,PAYLOAD,2024-08-14 12:46:45,15.0884342,0.000126,53.2168,312.3881,81.5442,278.5692,0.0006446,9.987e-05,0.0,0 STARLINK-4715,1 53801U 22111AE  24227.53247337  .00009987  00000-0  64460-3 0  9991,2 53801  53.2168 312.3881 0001260  81.5442 278.5692 15.08843420106633,6917.87,95.437,540.607,538.863,0.0
53801.0,STARLINK-4715,PAYLOAD,2024-08-14 22:19:04,15.08857916,0.0001328,53.2176,310.6038,87.9129,272.2015,0.0010573,0.00016587,0.0,0 STARLINK-4715,1 53801U 22111AE  24227.92990944  .00016587  00000-0  10573-2 0  9992,2 53801  53.2176 310.6038 0001328  87.9129 272.2015 15.08857916107506,6917.826,95.436,540.609,538.772,0.0
53801.0,STARLINK-4715,PAYLOAD,2024-08-15 12:37:32,15.08845071,0.0001459,53.2176,307.9292,85.0764,275.0395,0.00055749,8.597e-05,0.0,0 STARLINK-4715,1 53801U 22111AE  24228.52607526  .00008597  00000-0  55749-3 0  9997,2 53801  53.2176 307.9292 0001459  85.0764 275.0395 15.08845071107596,6917.865,95.437,540.739,538.721,0.0
53801.0,STARLINK-4715,PAYLOAD,2024-08-15 22:09:50,15.08855001,0.000123,53.2181,306.1455,83.7733,276.34,0.00028011,4.175e-05,0.0,0 STARLINK-4715,1 53801U 22111AE  24228.92350651  .00004175  00000-0  28011-3 0  9995,2 53801  53.2181 306.1455 0001230  83.7733 276.3400 15.08855001107654,6917.835,95.437,540.55,538.849,0.0
53801.0,STARLINK-4715,PAYLOAD,2024-08-16 09:17:32,15.0884935,0.000221,53.2165,304.0582,73.2322,286.8912,-4.5998e-05,-1.021e-05,0.0,0 STARLINK-4715,1 53801U 22111AE  24229.38718681 -.00001021  00000-0 -45998-4 0  9990,2 53801  53.2165 304.0582 0002210  73.2322 286.8912 15.08849350107723,6917.852,95.437,541.246,538.188,0.0
53801.0,STARLINK-4715,PAYLOAD,2024-08-18 04:12:57,15.08841384,0.0001228,53.2137,296.0286,69.3441,290.7683,0.00017265,2.461e-05,0.0,0 STARLINK-4715,1 53801U 22111AE  24231.17567054  .00002461  00000-0  17265-3 0  9998,2 53801  53.2137 296.0286 0001228  69.3441 290.7683 15.08841384107187,6917.876,95.437,540.591,538.892,0.0
53801.0,STARLINK-4715,PAYLOAD,2024-08-18 16:56:02,15.08860312,0.0001196,53.2157,293.6503,88.1909,271.922,0.00049313,7.573e-05,0.0,0 STARLINK-4715,1 53801U 22111AE  24231.70558187  .00007573  00000-0  49313-3 0  9992,2 53801  53.2157 293.6503 0001196  88.1909 271.9220 15.08860312107265,6917.818,95.436,540.511,538.856,0.0
53801.0,STARLINK-4715,PAYLOAD,2024-08-19 12:00:40,15.08840118,0.0001412,53.2149,290.0837,93.0143,267.1011,6.4066e-05,7.32e-06,0.0,0 STARLINK-4715,1 53801U 22111AE  24232.50046824  .00000732  00000-0  64066-4 0  9994,2 53801  53.2149 290.0837 0001412  93.0143 267.1011 15.08840118107383,6917.88,95.438,540.722,538.768,0.0
53801.0,STARLINK-4715,PAYLOAD,2024-08-20 10:16:04,15.08846272,0.0001406,53.2148,285.9199,92.7654,267.3499,0.0002593,3.842e-05,0.0,0 STARLINK-4715,1 53801U 22111AE  24233.42782736  .00003842  00000-0  25930-3 0  9996,2 53801  53.2148 285.9199 0001406  92.7654 267.3499 15.08846272108337,6917.861,95.437,540.699,538.754,0.0
53801.0,STARLINK-4715,PAYLOAD,2024-08-21 03:45:18,15.08844573,0.0001416,53.2145,282.6492,93.6704,266.445,0.00026282,3.898e-05,0.0,0 STARLINK-4715,1 53801U 22111AE  24234.15646839  .00003898  00000-0  26282-3 0  9992,2 53801  53.2145 282.6492 0001416  93.6704 266.4450 15.08844573107632,6917.866,95.437,540.711,538.752,0.0
53801.0,STARLINK-4715,PAYLOAD,2024-08-21 10:06:51,15.08837379,0.0001402,53.2148,281.4587,96.4229,263.6923,8.8181e-05,1.116e-05,0.0,0 STARLINK-4715,1 53801U 22111AE  24234.42143054  .00001116  00000-0  88181-4 0  9991,2 53801  53.2148 281.4587 0001402  96.4229 263.6923 15.08837379108489,6917.888,95.438,540.723,538.784,0.0
53801.0,STARLINK-4715,PAYLOAD,2024-08-21 19:39:10,15.08841084,0.0001374,53.2148,279.6758,93.7919,266.323,0.00013864,1.919e-05,0.0,0 STARLINK-4715,1 53801U 22111AE  24234.81886969  .00001919  00000-0  13864-3 0  9999,2 53801  53.2148 279.6758 0001374  93.7919 266.3230 15.08841084107738,6917.877,95.437,540.693,538.792,0.0
